0 COSMOS 2221
1 22236U 92080A   13282.41168779  .00001051  00000-0  11997-3 0  9473
2 22236 082.5093 249.2366 0019105 139.1031 221.1622 14.85048944127216
0 COSMOS 2221
1 22236U 92080A   13283.42238343  .00001011  00000-0  11527-3 0  9486
2 22236 082.5094 248.2860 0019172 135.9408 224.3340 14.85051399127367
0 COSMOS 2221
1 22236U 92080A   13284.43307703  .00001037  00000-0  11824-3 0  9494
2 22236 082.5095 247.3353 0019215 132.8616 227.4218 14.85053107127514
0 COSMOS 2221
1 22236U 92080A   13285.44376858  .00000911  00000-0  10351-3 0  9509
2 22236 082.5097 246.3847 0019275 129.7545 230.5373 14.85054726127666
0 COSMOS 2221
1 22236U 92080A   13286.45445782  .00001215  00000-0  13905-3 0  9511
2 22236 082.5100 245.4340 0019306 126.7037 233.5956 14.85055558127818
0 COSMOS 2221
1 22236U 92080A   13287.46514741  .00001389  00000-0  15940-3 0  9529
2 22236 082.5102 244.4834 0019332 123.6573 236.6491 14.85059359127964
0 COSMOS 2221
1 22236U 92080A   13288.81272867  .00001385  00000-0  15893-3 0  9533
2 22236 082.5105 243.2160 0019364 119.5822 240.7327 14.85063538128163
0 COSMOS 2221
1 22236U 92080A   13289.82341224  .00001363  00000-0  15626-3 0  9540
2 22236 082.5107 242.2655 0019394 116.5234 243.7974 14.85067154128316
0 COSMOS 2221
1 22236U 92080A   13291.44050115  .00001376  00000-0  15783-3 0  9556
2 22236 082.5108 240.7449 0019456 111.5643 248.7648 14.85070893128552
0 COSMOS 2221
1 22236U 92080A   13292.72069284  .00001574  00000-0  18092-3 0  9562
2 22236 082.5109 239.5412 0019461 107.7165 252.6177 14.85073879128740
0 COSMOS 2221
1 22236U 92080A   13293.79874658  .00001595  00000-0  18335-3 0  9573
2 22236 082.5111 238.5275 0019454 104.4655 255.8721 14.85077046128907
0 COSMOS 2221
1 22236U 92080A   13294.80942003  .00001628  00000-0  18718-3 0  9589
2 22236 082.5111 237.5772 0019446 101.4368 258.9033 14.85080463129051
0 COSMOS 2221
1 22236U 92080A   13295.82009161  .00001598  00000-0  18367-3 0  9598
2 22236 082.5111 236.6269 0019453 098.3701 261.9722 14.85083259129207
